[
    {
        "Altitude(m)": 607897.6257902369,
        "Argument of Periapsis(deg)": 0.0,
        "Eccentricity": 0.0,
        "Inclination(deg)": 60.0,
        "Latitude(deg)": -14.292997414858357,
        "Longitude(deg)": 1.618784232395722,
        "Mean Anomaly(deg)": -16.363600000000012,
        "RAAN(deg)": 110.00000000000001,
        "Satellite Name": "Test1 505",
        "Satellite Number": 505,
        "Semi-Major Axis(m)": 6980739.136638005,
        "Time(s)": 0
    },
    {
        "Altitude(m)": 607750.826592879,
        "Argument of Periapsis(deg)": 0.00010418945913296404,
        "Eccentricity": 0.0,
        "Inclination(deg)": 60.0,
        "Latitude(deg)": -13.758838238301832,
        "Longitude(deg)": 1.905852102818137,
        "Mean Anomaly(deg)": -15.743493854538173,
        "RAAN(deg)": 109.99957995086025,
        "Satellite Name": "Test1 505",
        "Satellite Number": 505,
        "Semi-Major Axis(m)": 6980739.136638005,
        "Time(s)": 10
    }
]